OBJECT_NAME,OBJECT_ID,EPOCH,MEAN_MOTION,ECCENTRICITY,INCLINATION,RA_OF_ASC_NODE,ARG_OF_PERICENTER,MEAN_ANOMALY,EPHEMERIS_TYPE,CLASSIFICATION_TYPE,NORAD_CAT_ID,ELEMENT_SET_NO,REV_AT_EPOCH,BSTAR,MEAN_MOTION_DOT,MEAN_MOTION_DDOT
DMSP 5D-3 F16 (USA 172),2003-048A,2026-06-07T07:45:47.865888,14.14482254,.000726,98.9893,182.0863,166.1666,210.4088,0,U,28054,999,16809,.36294E-4,.24E-6,0
METEOSAT-9 (MSG-2),2005-049B,2026-06-06T20:31:58.380384,1.00268262,.00017945,9.3374,54.2678,349.1342,205.5679,0,U,28912,999,689,0,.136E-5,0
DMSP 5D-3 F17 (USA 191),2006-050A,2026-06-07T06:28:57.262944,14.14991655,.0011327,98.7378,165.0431,84.7508,275.4958,0,U,29522,999,1102,.52965E-4,.59E-6,0
FENGYUN 3A,2008-026A,2026-06-07T06:00:09.047808,14.19569087,.0009155,98.6881,99.2694,150.1035,210.0666,0,U,32958,999,93399,.61276E-4,.86E-6,0
GOES 14,2009-033A,2026-06-07T12:31:38.879328,1.00114414,.0001997,1.6642,83.1610,3.3610,144.6767,0,U,35491,999,649,0,-.237E-5,0
DMSP 5D-3 F18 (USA 210),2009-057A,2026-06-07T10:52:16.545792,14.14891500,.000988,98.9033,139.2435,280.5340,79.4720,0,U,35951,999,85821,.16647E-3,.277E-5,0
EWS-G2 (GOES 15),2010-008A,2026-06-07T10:18:25.119360,1.00275830,.0005501,1.2501,83.0206,37.5438,353.4626,0,U,36411,999,5954,0,.33E-6,0
COMS 1,2010-032A,2026-06-03T23:47:39.107040,1.00270643,.0001016,4.7750,75.5286,4.5847,297.3769,0,U,36744,999,5095,0,-.334E-5,0
FENGYUN 3B,2010-059A,2026-06-07T11:35:54.839040,14.14840542,.0021405,98.9620,204.4564,212.1921,256.7608,0,U,37214,999,80605,.18171E-3,.306E-5,0
SUOMI NPP,2011-061A,2026-06-07T11:20:22.970112,14.19515449,.0002055,98.7951,99.4151,27.9053,332.2233,0,U,37849,999,75706,.62467E-4,.87E-6,0
METEOSAT-10 (MSG-3),2012-035B,2026-06-07T08:17:38.557824,1.00275762,.0001677,4.6475,61.0621,336.2701,343.0302,0,U,38552,999,5075,0,.9E-7,0
METOP-B,2012-049A,2026-06-07T09:43:31.235232,14.21430166,.0002806,98.6508,210.0991,42.3724,317.7670,0,U,38771,999,71187,.7462E-4,.12E-5,0
INSAT-3D,2013-038B,2026-06-07T10:37:15.811104,1.00274338,.0000878,1.9000,82.6691,319.9745,142.0179,0,U,39216,999,4698,0,-.324E-5,0
FENGYUN 3C,2013-052A,2026-06-07T12:04:09.234624,14.15752929,.001567,98.4975,132.8227,54.0375,306.2250,0,U,39260,999,65719,.6856E-4,.93E-6,0
METEOR-M 2,2014-037A,2026-06-07T12:03:06.631776,14.21457988,.000704,98.5114,134.5841,67.7099,292.4825,0,U,40069,999,61794,.33156E-4,.3E-6,0
HIMAWARI-8,2014-060A,2026-06-07T12:31:38.879328,1.00271080,.0000853,0.0214,54.6209,44.6435,125.2473,0,U,40267,999,4266,0,-.261E-5,0
FENGYUN 2G,2014-090A,2026-06-06T19:04:41.495808,1.00277925,.00033304,5.6125,72.9393,154.5057,53.5102,0,U,40367,999,4189,0,-.289E-5,0
METEOSAT-11 (MSG-4),2015-034A,2026-06-07T06:37:37.388352,1.00277227,.000168,3.1776,71.1650,5.2999,288.0319,0,U,40732,999,711,0,.78E-6,0
ELEKTRO-L 2,2015-074A,2026-06-07T01:22:35.395104,1.00272194,.0001291,6.6683,70.6461,283.5448,267.4428,0,U,41105,999,3840,0,-.104E-5,0
SENTINEL-3A,2016-011A,2026-06-07T11:14:39.594048,14.26737394,.0001355,98.6250,225.9913,104.3078,255.8253,0,U,41335,999,53667,.69257E-4,.124E-5,0
INSAT-3DR,2016-054A,2026-06-07T10:21:24.832224,1.00270726,.0010364,0.0803,87.6650,186.9054,210.6145,0,U,41752,999,3572,0,-.62E-6,0
HIMAWARI-9,2016-064A,2026-06-07T12:31:38.879328,1.00273268,.0000881,0.0354,176.5797,296.2490,111.7787,0,U,41836,999,3511,0,-.26E-5,0
GOES 16,2016-071A,2026-06-07T11:13:01.835040,1.00270840,.0000508,0.3149,85.6261,317.7505,276.0886,0,U,41866,999,3500,0,-.76E-6,0
FENGYUN 4A,2016-077A,2026-06-07T12:18:19.091808,1.00274668,.0008224,2.2976,80.3870,151.5097,332.3645,0,U,41882,999,3483,0,-.342E-5,0
CYGFM05,2016-078A,2026-06-07T04:10:04.255968,15.56221382,.0007053,34.9577,326.8764,47.5364,312.5956,0,U,41884,999,52719,.34747E-3,.25237E-3,0
CYGFM04,2016-078B,2026-06-06T18:59:30.886080,15.60924335,.0006004,34.9328,297.6135,90.3195,269.8218,0,U,41885,999,52737,.38615E-3,.33565E-3,0
CYGFM02,2016-078C,2026-06-06T17:56:48.592032,15.63814591,.00069588,34.9411,292.7401,91.2851,268.8673,0,U,41886,999,52753,.43527328E-3,.42435E-3,0
CYGFM01,2016-078D,2026-06-07T04:00:02.525760,15.56882001,.0006971,34.9408,328.0607,40.7680,319.3564,0,U,41887,999,52714,.3439E-3,.25604E-3,0
CYGFM08,2016-078E,2026-06-06T19:45:15.298272,15.59466367,.0007923,34.9438,310.1862,71.9713,288.1875,0,U,41888,999,52735,.38065E-3,.31291E-3,0
CYGFM07,2016-078G,2026-06-07T02:28:15.121056,15.59586778,.000636,34.9451,296.6759,92.9078,267.2375,0,U,41890,999,52742,.37206E-3,.30707E-3,0
CYGFM03,2016-078H,2026-06-07T01:46:25.335840,15.59579007,.0005954,34.9406,298.8090,78.4832,281.6562,0,U,41891,999,52739,.3655E-3,.3015E-3,0
