DMSP 5D-3 F16 (USA 172) 
1 28054U 03048A   26158.32347067  .00000024  00000+0  36294-4 0  9991
2 28054  98.9893 182.0863 0007260 166.1666 210.4088 14.14482254168094
METEOSAT-9 (MSG-2)      
1 28912U 05049B   26157.85553681  .00000136  00000+0  00000+0 0  9990
2 28912   9.3374  54.2678 0001794 349.1342 205.5679  1.00268262  6893
DMSP 5D-3 F17 (USA 191) 
1 29522U 06050A   26158.27010721  .00000059  00000+0  52965-4 0  9997
2 29522  98.7378 165.0431 0011327  84.7508 275.4958 14.14991655 11029
FENGYUN 3A              
1 32958U 08026A   26158.25010472  .00000086  00000+0  61276-4 0  9995
2 32958  98.6881  99.2694 0009155 150.1035 210.0666 14.19569087933997
GOES 14                 
1 35491U 09033A   26158.52197777 -.00000237  00000+0  00000+0 0  9995
2 35491   1.6642  83.1610 0001997   3.3610 144.6767  1.00114414  6491
DMSP 5D-3 F18 (USA 210) 
1 35951U 09057A   26158.45296928  .00000277  00000+0  16647-3 0  9993
2 35951  98.9033 139.2435 0009880 280.5340  79.4720 14.14891500858217
EWS-G2 (GOES 15)        
1 36411U 10008A   26158.42945740  .00000033  00000+0  00000+0 0  9995
2 36411   1.2501  83.0206 0005501  37.5438 353.4626  1.00275830 59544
COMS 1                  
1 36744U 10032A   26154.99142485 -.00000334  00000+0  00000+0 0  9999
2 36744   4.7750  75.5286 0001016   4.5847 297.3769  1.00270643 50953
FENGYUN 3B              
1 37214U 10059A   26158.48327360  .00000306  00000+0  18171-3 0  9996
2 37214  98.9620 204.4564 0021405 212.1921 256.7608 14.14840542806054
SUOMI NPP               
1 37849U 11061A   26158.47248808  .00000087  00000+0  62467-4 0  9996
2 37849  98.7951  99.4151 0002055  27.9053 332.2233 14.19515449757065
METEOSAT-10 (MSG-3)     
1 38552U 12035B   26158.34558516  .00000009  00000+0  00000+0 0  9990
2 38552   4.6475  61.0621 0001677 336.2701 343.0302  1.00275762 50752
METOP-B                 
1 38771U 12049A   26158.40522263  .00000120  00000+0  74620-4 0  9993
2 38771  98.6508 210.0991 0002806  42.3724 317.7670 14.21430166711877
INSAT-3D                
1 39216U 13038B   26158.44254411 -.00000324  00000+0  00000+0 0  9991
2 39216   1.9000  82.6691 0000878 319.9745 142.0179  1.00274338 46985
FENGYUN 3C              
1 39260U 13052A   26158.50288466  .00000093  00000+0  68560-4 0  9992
2 39260  98.4975 132.8227 0015670  54.0375 306.2250 14.15752929657193
METEOR-M 2              
1 40069U 14037A   26158.50216009  .00000030  00000+0  33156-4 0  9993
2 40069  98.5114 134.5841 0007040  67.7099 292.4825 14.21457988617942
HIMAWARI-8              
1 40267U 14060A   26158.52197777 -.00000261  00000+0  00000+0 0  9995
2 40267   0.0214  54.6209 0000853  44.6435 125.2473  1.00271080 42667
FENGYUN 2G              
1 40367U 14090A   26157.79492472 -.00000289  00000+0  00000+0 0  9997
2 40367   5.6125  72.9393 0003330 154.5057  53.5102  1.00277925 41891
METEOSAT-11 (MSG-4)     
1 40732U 15034A   26158.27612718  .00000078  00000+0  00000+0 0  9998
2 40732   3.1776  71.1650 0001680   5.2999 288.0319  1.00277227  7119
ELEKTRO-L 2             
1 41105U 15074A   26158.05735411 -.00000104  00000+0  00000+0 0  9990
2 41105   6.6683  70.6461 0001291 283.5448 267.4428  1.00272194 38407
SENTINEL-3A             
1 41335U 16011A   26158.46851382  .00000124  00000+0  69257-4 0  9993
2 41335  98.6250 225.9913 0001355 104.3078 255.8253 14.26737394536679
INSAT-3DR               
1 41752U 16054A   26158.43153741 -.00000062  00000+0  00000+0 0  9992
2 41752   0.0803  87.6650 0010364 186.9054 210.6145  1.00270726 35722
HIMAWARI-9              
1 41836U 16064A   26158.52197777 -.00000260  00000+0  00000+0 0  9993
2 41836   0.0354 176.5797 0000881 296.2490 111.7787  1.00273268 35118
GOES 16                 
1 41866U 16071A   26158.46738235 -.00000076  00000+0  00000+0 0  9992
2 41866   0.3149  85.6261 0000508 317.7505 276.0886  1.00270840 35000
FENGYUN 4A              
1 41882U 16077A   26158.51272097 -.00000342  00000+0  00000+0 0  9997
2 41882   2.2976  80.3870 0008224 151.5097 332.3645  1.00274668 34839
CYGFM05                 
1 41884U 16078A   26158.17366037  .00025237  00000+0  34747-3 0  9998
2 41884  34.9577 326.8764 0007053  47.5364 312.5956 15.56221382527192
CYGFM04                 
1 41885U 16078B   26157.79132970  .00033565  00000+0  38615-3 0  9994
2 41885  34.9328 297.6135 0006004  90.3195 269.8218 15.60924335527375
CYGFM02                 
1 41886U 16078C   26157.74778463  .00042435  00000+0  43527-3 0  9997
2 41886  34.9411 292.7401 0006958  91.2851 268.8673 15.63814591527535
CYGFM01                 
1 41887U 16078D   26158.16669590  .00025604  00000+0  34390-3 0  9992
2 41887  34.9408 328.0607 0006971  40.7680 319.3564 15.56882001527148
CYGFM08                 
1 41888U 16078E   26157.82309373  .00031291  00000+0  38065-3 0  9997
2 41888  34.9438 310.1862 0007923  71.9713 288.1875 15.59466367527355
CYGFM07                 
1 41890U 16078G   26158.10295279  .00030707  00000+0  37206-3 0  9998
2 41890  34.9451 296.6759 0006360  92.9078 267.2375 15.59586778527427
CYGFM03                 
1 41891U 16078H   26158.07390435  .00030150  00000+0  36550-3 0  9998
2 41891  34.9406 298.8090 0005954  78.4832 281.6562 15.59579007527396
